XINGWANG_L_00004001-01
1 63852U 25908NK  26070.40775463  .00000000  00000+0  00000-0 0  9998
2 63852  86.4000   0.0000 0000000   0.0000   0.0000 14.09816417    16
